[{"OBJECT_NAME":"STARLINK-36063","OBJECT_ID":"2025-270U","EPOCH":"2026-03-09T00:11:02.414112","MEAN_MOTION":15.27597926,"ECCENTRICITY":5.016e-5,"INCLINATION":42.9991,"RA_OF_ASC_NODE":59.8441,"ARG_OF_PERICENTER":247.3094,"MEAN_ANOMALY":112.7705,"EPHEMERIS_TYPE":0,"CLASSIFICATION_TYPE":"U","NORAD_CAT_ID":66606,"ELEMENT_SET_NO":999,"REV_AT_EPOCH":1760,"BSTAR":0.00082352276,"MEAN_MOTION_DOT":0.00022481,"MEAN_MOTION_DDOT":0},{"OBJECT_NAME":"CZ-6A DEB","OBJECT_ID":"2024-140JQ","EPOCH":"2026-03-09T16:05:49.477056","MEAN_MOTION":15.15394204,"ECCENTRICITY":0.00800164,"INCLINATION":89.0638,"RA_OF_ASC_NODE":284.0631,"ARG_OF_PERICENTER":105.771,"MEAN_ANOMALY":255.2376,"EPHEMERIS_TYPE":0,"CLASSIFICATION_TYPE":"U","NORAD_CAT_ID":60861,"ELEMENT_SET_NO":999,"REV_AT_EPOCH":8511,"BSTAR":0.0025246282,"MEAN_MOTION_DOT":0.00051962,"MEAN_MOTION_DDOT":0}]
